NORAD_CAT_ID,OBJECT_NAME,OBJECT_TYPE,EPOCH,MEAN_MOTION,ECCENTRICITY,INCLINATION,RA_OF_ASC_NODE,ARG_OF_PERICENTER,MEAN_ANOMALY,BSTAR,MEAN_MOTION_DOT,MEAN_MOTION_DDOT,TLE_LINE0,TLE_LINE1,TLE_LINE2,SEMIMAJOR_AXIS,PERIOD,APOGEE,PERIGEE,DECAYED
52550.0,STARLINK-3965,PAYLOAD,2022-08-09 14:00:01,15.08831499,0.0001927,53.2161,241.4232,41.1443,102.2947,-0.00021549,-3.715e-05,0.0,0 STARLINK-3965,1 52550U 22051T   22221.58334491 -.00003715  00000-0 -21549-3 0  9995,2 52550  53.2161 241.4232 0001927  41.1443 102.2947 15.08831499  1308,6917.906,95.438,541.104,538.438,0.0
52550.0,STARLINK-3965,PAYLOAD,2022-08-09 22:00:00,15.0880543,0.0001706999999999,53.216,239.9253,46.3775,108.6513,0.0025151999999999,0.00039931,0.0,0 STARLINK-3965,1 52550U 22051T   22221.91667824  .00039931  00000-0  25152-2 0  9991,2 52550  53.2160 239.9253 0001707  46.3775 108.6513 15.08805430  1308,6917.986,95.44,541.0319999999998,538.67,0.0
52550.0,STARLINK-3965,PAYLOAD,2022-08-10 06:00:00,15.08840999,0.000184,53.216,238.4302,45.4473,121.1515,-0.0016963,-0.00027184,0.0,0 STARLINK-3965,1 52550U 22051T   22222.25001157 -.00027184  00000-0 -16963-2 0  9999,2 52550  53.2160 238.4302 0001840  45.4473 121.1515 15.08840999 14136,6917.877,95.437,541.015,538.469,0.0
52550.0,STARLINK-3965,PAYLOAD,2022-08-10 14:00:01,15.08829993,0.0001934,53.2154,236.9342,42.312,135.8694,0.00028636,4.271e-05,0.0,0 STARLINK-3965,1 52550U 22051T   22222.58334491  .00004271  00000-0  28636-3 0  9996,2 52550  53.2154 236.9342 0001934  42.3120 135.8694 15.08829993  1301,6917.911,95.438,541.114,538.438,0.0
52550.0,STARLINK-3965,PAYLOAD,2022-08-10 22:00:00,15.08812194,0.000176,53.2152,235.4362,48.2231,141.5503,0.002411,0.00038263,0.0,0 STARLINK-3965,1 52550U 22051T   22222.91667824  .00038263  00000-0  24110-2 0  9992,2 52550  53.2152 235.4362 0001760  48.2231 141.5503 15.08812194 14234,6917.965,95.439,541.048,538.613,0.0
52550.0,STARLINK-3965,PAYLOAD,2022-08-11 14:00:01,15.08840516,0.0001979,53.2149,232.4449,43.7161,169.2217,-0.00035748,-5.973e-05,0.0,0 STARLINK-3965,1 52550U 22051T   22223.58334491 -.00005973  00000-0 -35748-3 0  9991,2 52550  53.2149 232.4449 0001979  43.7161 169.2217 15.08840516  1309,6917.879,95.438,541.113,538.375,0.0
52550.0,STARLINK-3965,PAYLOAD,2022-08-11 22:00:00,15.08818269,0.0001844,53.2149,230.9468,49.3334,175.2041,0.0024335999999999,0.00038633,0.0,0 STARLINK-3965,1 52550U 22051T   22223.91667824  .00038633  00000-0  24336-2 0  9994,2 52550  53.2149 230.9468 0001844  49.3334 175.2041 15.08818269 14393,6917.946999999999,95.439,541.087,538.536,0.0
52550.0,STARLINK-3965,PAYLOAD,2022-08-12 14:00:01,15.08854991,0.0002051,53.215,227.9554,44.6017,203.1189,-0.0008148999999999,-0.0001324,0.0,0 STARLINK-3965,1 52550U 22051T   22224.58334491 -.00013240  00000-0 -81490-3 0  9993,2 52550  53.2150 227.9554 0002051  44.6017 203.1189 15.08854991 14491,6917.835,95.437,541.118,538.281,0.0
52550.0,STARLINK-3965,PAYLOAD,2022-08-12 22:00:01,15.08829024,0.0001935,53.2152,226.4572,49.9362,209.4586,0.0025210999999999,0.00040052,0.0,0 STARLINK-3965,1 52550U 22051T   22224.91668981  .00040052  00000-0  25211-2 0  9991,2 52550  53.2152 226.4572 0001935  49.9362 209.4586 15.08829024  1303,6917.9140000000025,95.438,541.118,538.44,0.0
52550.0,STARLINK-3965,PAYLOAD,2022-08-13 06:00:02,15.08827171,0.0002041,53.2154,224.9623,44.9938,225.9664,-0.0010047,-0.00016237,0.0,0 STARLINK-3965,1 52550U 22051T   22225.25002315 -.00016237  00000-0 -10047-2 0  9993,2 52550  53.2154 224.9623 0002041  44.9938 225.9664 15.08827171 14594,6917.92,95.438,541.197,538.373,0.0
52550.0,STARLINK-3965,PAYLOAD,2022-08-13 14:00:01,15.08836224,0.0002059,53.2156,223.4659,42.7992,239.6626,-0.0014104,-0.00022663,0.0,0 STARLINK-3965,1 52550U 22051T   22225.58334491 -.00022663  00000-0 -14104-2 0  9990,2 52550  53.2156 223.4659 0002059  42.7992 239.6626 15.08836224  1308,6917.892,95.438,541.181,538.3330000000002,0.0
52550.0,STARLINK-3965,PAYLOAD,2022-08-13 22:00:00,15.0880757,0.0001961,53.216,221.9679,48.6308,245.4176,0.0025943,0.00041206,0.0,0 STARLINK-3965,1 52550U 22051T   22225.91667824  .00041206  00000-0  25943-2 0  9991,2 52550  53.2160 221.9679 0001961  48.6308 245.4176 15.08807570  1302,6917.98,95.44,541.201,538.488,0.0
52550.0,STARLINK-3965,PAYLOAD,2022-08-14 06:00:02,15.08821861,0.0002106,53.2167,220.4767,46.555,259.1327,0.0011087999999999,0.00017394,0.0,0 STARLINK-3965,1 52550U 22051T   22226.25002315  .00017394  00000-0  11088-2 0  9993,2 52550  53.2167 220.4767 0002106  46.5550 259.1327 15.08821861 14740,6917.936,95.439,541.258,538.344,0.0
52550.0,STARLINK-3965,PAYLOAD,2022-08-14 14:00:01,15.08851005,0.0002148,53.2164,218.9765,44.2744,272.9317,-0.0017102,-0.00027412,0.0,0 STARLINK-3965,1 52550U 22051T   22226.58334491 -.00027412  00000-0 -17102-2 0  9999,2 52550  53.2164 218.9765 0002148  44.2744 272.9317 15.08851005  1306,6917.847,95.437,541.198,538.226,0.0
52550.0,STARLINK-3965,PAYLOAD,2022-08-14 22:00:00,15.08822199,0.0002041999999999,53.2168,217.4787,50.2237,278.5839,0.0025846,0.00041066,0.0,0 STARLINK-3965,1 52550U 22051T   22226.91667824  .00041066  00000-0  25846-2 0  9998,2 52550  53.2168 217.4787 0002042  50.2237 278.5839 15.08822199  1308,6917.935,95.439,541.212,538.387,0.0
52550.0,STARLINK-3965,PAYLOAD,2022-08-15 14:00:01,15.08863443,0.0002201,53.217,214.4873,46.1142,305.8793,-0.0019924,-0.00031879,0.0,0 STARLINK-3965,1 52550U 22051T   22227.58334491 -.00031879  00000-0 -19924-2 0  9996,2 52550  53.2170 214.4873 0002201  46.1142 305.8793 15.08863443  1300,6917.809,95.436,541.196,538.151,0.0
52550.0,STARLINK-3965,PAYLOAD,2022-08-15 16:00:00,15.08858809,0.0002148,53.2172,214.1127,48.3022,36.5952,-0.0015832,-0.0002541,0.0,0 STARLINK-3965,1 52550U 22051T   22227.66667824 -.00025410  00000-0 -15832-2 0  9992,2 52550  53.2172 214.1127 0002148  48.3022  36.5952 15.08858809 14952,6917.823,95.436,541.174,538.202,0.0
52550.0,STARLINK-3965,PAYLOAD,2022-08-15 22:00:00,15.08835739,0.0002086999999999,53.2174,212.9897,52.1056,311.5011,0.0023788,0.0003776999999999,0.0,0 STARLINK-3965,1 52550U 22051T   22227.91667824  .00037770  00000-0  23788-2 0  9999,2 52550  53.2174 212.9897 0002087  52.1056 311.5011 15.08835739  1300,6917.893,95.438,541.202,538.315,0.0
52550.0,STARLINK-3965,PAYLOAD,2022-08-16 06:00:02,15.08858674,0.0002254999999999,53.2173,211.4951,48.1138,327.1635,-0.00083129,-0.00013501,0.0,0 STARLINK-3965,1 52550U 22051T   22228.25002315 -.00013501  00000-0 -83129-3 0  9999,2 52550  53.2173 211.4951 0002255  48.1138 327.1635 15.08858674 15041,6917.823,95.436,541.248,538.128,0.0
52550.0,STARLINK-3965,PAYLOAD,2022-08-16 14:00:01,15.08875695,0.0002163,53.2171,209.9981,47.0114,339.8119,-0.0044988,-0.00071251,0.0,0 STARLINK-3965,1 52550U 22051T   22228.58334491 -.00071251  00000-0 -44988-2 0  9993,2 52550  53.2171 209.9981 0002163  47.0114 339.8119 15.08875695  1307,6917.771,95.435,541.133,538.14,0.0
52550.0,STARLINK-3965,PAYLOAD,2022-08-16 22:00:00,15.08824158,0.0002013,53.2174,208.5008,52.1976,346.2347,0.0020653,0.0003272,0.0,0 STARLINK-3965,1 52550U 22051T   22228.91667824  .00032720  00000-0  20653-2 0  9998,2 52550  53.2174 208.5008 0002013  52.1976 346.2347 15.08824158  1305,6917.929,95.439,541.186,538.401,0.0
52550.0,STARLINK-3965,PAYLOAD,2022-08-17 14:00:01,15.08857734,0.000214,53.2169,205.5092,48.8802,12.7306,-0.0019977,-0.00031957,0.0,0 STARLINK-3965,1 52550U 22051T   22229.58334491 -.00031957  00000-0 -19977-2 0  9993,2 52550  53.2169 205.5092 0002140  48.8802  12.7306 15.08857734 15244,6917.826,95.436,541.172,538.211,0.0
52550.0,STARLINK-3965,PAYLOAD,2022-08-17 16:00:00,15.08847341,0.0002066999999999,53.217,205.1347,50.8198,103.6953,-0.00062276,-0.00010188,0.0,0 STARLINK-3965,1 52550U 22051T   22229.66667824 -.00010188  00000-0 -62276-3 0  9995,2 52550  53.2170 205.1347 0002067  50.8198 103.6953 15.08847341  1307,6917.858,95.437,541.153,538.293,0.0
52550.0,STARLINK-3965,PAYLOAD,2022-08-18 08:00:01,15.08839839,0.0002210999999999,53.2167,202.1437,48.9438,128.7864,0.0015299,0.00024144,0.0,0 STARLINK-3965,1 52550U 22051T   22230.33334491  .00024144  00000-0  15299-2 0  9999,2 52550  53.2167 202.1437 0002211  48.9438 128.7864 15.08839839 15358,6917.880999999999,95.438,541.275,538.216,0.0
52550.0,STARLINK-3965,PAYLOAD,2022-08-18 14:00:01,15.08873662,0.0002096,53.2163,201.0203,50.2417,46.1934,-0.003964,-0.00062885,0.0,0 STARLINK-3965,1 52550U 22051T   22230.58334491 -.00062885  00000-0 -39640-2 0  9998,2 52550  53.2163 201.0203 0002096  50.2417  46.1934 15.08873662  1300,6917.776999999999,95.435,541.092,538.193,0.0
52550.0,STARLINK-3965,PAYLOAD,2022-08-18 22:00:00,15.08837224,0.0002009999999999,53.2164,199.5231,54.96100000000001,53.0807,0.0013884,0.00021876,0.0,0 STARLINK-3965,1 52550U 22051T   22230.91667824  .00021876  00000-0  13884-2 0  9999,2 52550  53.2164 199.5231 0002010  54.9610  53.0807 15.08837224 15445,6917.889,95.438,541.144,538.363,0.0
52550.0,STARLINK-3965,PAYLOAD,2022-08-19 14:00:01,15.08839806,0.0002021999999999,53.2159,196.5312,49.2982,81.94200000000002,-0.0015252,-0.0002448,0.0,0 STARLINK-3965,1 52550U 22051T   22231.58334491 -.00024480  00000-0 -15252-2 0  9991,2 52550  53.2159 196.5312 0002022  49.2982  81.9420 15.08839806  1307,6917.880999999999,95.438,541.145,538.347,0.0
52550.0,STARLINK-3965,PAYLOAD,2022-08-19 16:00:00,15.08822378,0.0001972,53.216,196.1567,50.4002,173.7403,0.00045347,6.933e-05,0.0,0 STARLINK-3965,1 52550U 22051T   22231.66667824  .00006933  00000-0  45347-3 0  9999,2 52550  53.2160 196.1567 0001972  50.4002 173.7403 15.08822378 15567,6917.934,95.439,541.163,538.435,0.0
52550.0,STARLINK-3965,PAYLOAD,2022-08-19 22:00:00,15.08831951,0.0002002,53.2161,195.0342,54.3603,88.4589,0.00094767,0.00014823,0.0,0 STARLINK-3965,1 52550U 22051T   22231.91667824  .00014823  00000-0  94767-3 0  9994,2 52550  53.2161 195.0342 0002002  54.3603  88.4589 15.08831951  1303,6917.905,95.438,541.155,538.385,0.0
